NORAD_CAT_ID,OBJECT_NAME,OBJECT_TYPE,EPOCH,MEAN_MOTION,ECCENTRICITY,INCLINATION,RA_OF_ASC_NODE,ARG_OF_PERICENTER,MEAN_ANOMALY,BSTAR,MEAN_MOTION_DOT,MEAN_MOTION_DDOT,TLE_LINE0,TLE_LINE1,TLE_LINE2,SEMIMAJOR_AXIS,PERIOD,APOGEE,PERIGEE,DECAYED
52090.0,STARLINK-3712,PAYLOAD,2024-04-23 11:50:25,15.08834221,0.0001539,53.2187,285.0874,91.334,268.7828,0.00023069,3.385e-05,0.0,0 STARLINK-3712,1 52090U 22029C   24114.49335147  .00003385  00000-0  23069-3 0  9991,2 52090  53.2187 285.0874 0001539  91.3340 268.7828 15.08834221117213,6917.898,95.438,540.828,538.698,0.0
52090.0,STARLINK-3712,PAYLOAD,2024-04-23 18:11:57,15.08843286,0.0001636,53.2181,283.8967,105.5732,254.5441,0.00014139,1.963e-05,0.0,0 STARLINK-3712,1 52090U 22029C   24114.75830876  .00001963  00000-0  14139-3 0  9997,2 52090  53.2181 283.8967 0001636 105.5732 254.5441 15.08843286117256,6917.87,95.437,540.867,538.604,0.0
52090.0,STARLINK-3712,PAYLOAD,2024-04-24 11:41:12,15.0883776,0.0001736,53.2181,280.626,109.173,250.945,0.00012805,1.75e-05,0.0,0 STARLINK-3712,1 52090U 22029C   24115.48695358  .00001750  00000-0  12805-3 0  9994,2 52090  53.2181 280.6260 0001736 109.1730 250.9450 15.08837760117368,6917.887,95.438,540.953,538.551,0.0
52090.0,STARLINK-3712,PAYLOAD,2024-04-24 16:27:22,15.08842347,0.0001536,53.2184,279.7326,88.92,271.1968,0.00020759,3.018e-05,0.0,0 STARLINK-3712,1 52090U 22029C   24115.68567189  .00003018  00000-0  20759-3 0  9992,2 52090  53.2184 279.7326 0001536  88.9200 271.1968 15.08842347117396,6917.873,95.437,540.801,538.676,0.0
52090.0,STARLINK-3712,PAYLOAD,2024-04-25 14:42:46,15.08837344,0.0001591,53.2178,275.5715,107.6577,252.4589,5.6592e-05,6.13e-06,0.0,0 STARLINK-3712,1 52090U 22029C   24116.61303560  .00000613  00000-0  56592-4 0  9990,2 52090  53.2178 275.5715 0001591 107.6577 252.4589 15.08837344117530,6917.889,95.438,540.854,538.653,0.0
52090.0,STARLINK-3712,PAYLOAD,2024-04-25 16:18:09,15.08839058,0.0001604,53.2187,275.2753,113.6594,246.4567,8.7397e-05,1.103e-05,0.0,0 STARLINK-3712,1 52090U 22029C   24116.67927480  .00001103  00000-0  87397-4 0  9991,2 52090  53.2187 275.2753 0001604 113.6594 246.4567 15.08839058117544,6917.883,95.438,540.858,538.639,0.0
52090.0,STARLINK-3712,PAYLOAD,2024-04-26 14:33:33,15.08844433,0.0002115,53.2179,271.1127,54.8908,305.2282,0.00017852,2.554e-05,0.0,0 STARLINK-3712,1 52090U 22029C   24117.60663821  .00002554  00000-0  17852-3 0  9990,2 52090  53.2179 271.1127 0002115  54.8908 305.2282 15.08844433117684,6917.867,95.437,541.195,538.269,0.0
52090.0,STARLINK-3712,PAYLOAD,2024-04-26 16:08:56,15.08846222,0.000234,53.2179,270.8154,51.7905,308.3298,0.00022475,3.291e-05,0.0,0 STARLINK-3712,1 52090U 22029C   24117.67287851  .00003291  00000-0  22475-3 0  9998,2 52090  53.2179 270.8154 0002340  51.7905 308.3298 15.08846222117693,6917.861,95.437,541.345,538.108,0.0
52090.0,STARLINK-3712,PAYLOAD,2024-04-27 03:16:38,15.08845987,0.0001537,53.2177,268.7262,104.7607,255.3555,0.00024023,3.538e-05,0.0,0 STARLINK-3712,1 52090U 22029C   24118.13655344  .00003538  00000-0  24023-3 0  9991,2 52090  53.2177 268.7262 0001537 104.7607 255.3555 15.08845987117764,6917.862,95.437,540.79,538.664,0.0
52090.0,STARLINK-3712,PAYLOAD,2024-04-27 14:24:20,15.08837929,0.0001516,53.2161,266.6504,77.4905,282.6257,-7.2548e-05,-1.442e-05,0.0,0 STARLINK-3712,1 52090U 22029C   24118.60023621 -.00001442  00000-0 -72548-4 0  9990,2 52090  53.2161 266.6504 0001516  77.4905 282.6257 15.08837929117834,6917.887,95.438,540.8,538.703,0.0
52090.0,STARLINK-3712,PAYLOAD,2024-04-27 17:35:06,15.08850956,0.0001651,53.2174,266.0535,74.0123,286.1051,0.00021814,3.186e-05,0.0,0 STARLINK-3712,1 52090U 22029C   24118.73271284  .00003186  00000-0  21814-3 0  9998,2 52090  53.2174 266.0535 0001651  74.0123 286.1051 15.08850956117859,6917.847,95.437,540.854,538.57,0.0
52090.0,STARLINK-3712,PAYLOAD,2024-04-28 03:07:25,15.08836446,0.0001535,53.2184,264.2687,79.5332,280.5833,-2.5482e-05,-6.93e-06,0.0,0 STARLINK-3712,1 52090U 22029C   24119.13015803 -.00000693  00000-0 -25482-4 0  9994,2 52090  53.2184 264.2687 0001535  79.5332 280.5833 15.08836446117912,6917.891,95.438,540.818,538.694,0.0
52090.0,STARLINK-3712,PAYLOAD,2024-04-28 14:15:08,15.08832252,0.0001774,53.2175,262.19,83.3168,276.8026,-0.00013272,-2.399e-05,0.0,0 STARLINK-3712,1 52090U 22029C   24119.59384371 -.00002399  00000-0 -13272-3 0  9991,2 52090  53.2175 262.1900 0001774  83.3168 276.8026 15.08832252117982,6917.904,95.438,540.996,538.542,0.0
52090.0,STARLINK-3712,PAYLOAD,2024-04-28 15:50:31,15.08831403,0.0001639,53.2172,261.8925,85.5944,274.5236,-0.00012226,-2.233e-05,0.0,0 STARLINK-3712,1 52090U 22029C   24119.66008383 -.00002233  00000-0 -12226-3 0  9990,2 52090  53.2172 261.8925 0001639  85.5944 274.5236 15.08831403117994,6917.907,95.438,540.906,538.638,0.0
52090.0,STARLINK-3712,PAYLOAD,2024-04-29 12:30:32,15.08839489,0.0001576,53.2171,258.0279,86.3766,273.7406,0.00024358,3.591e-05,0.0,0 STARLINK-3712,1 52090U 22029C   24120.52120540  .00003591  00000-0  24358-3 0  9992,2 52090  53.2171 258.0279 0001576  86.3766 273.7406 15.08839489118122,6917.882,95.438,540.837,538.657,0.0
52090.0,STARLINK-3712,PAYLOAD,2024-04-29 18:52:04,15.08850707,0.0001295,53.2166,256.8342,94.3457,265.7683,0.00038256,5.808e-05,0.0,0 STARLINK-3712,1 52090U 22029C   24120.78616013  .00005808  00000-0  38256-3 0  9990,2 52090  53.2166 256.8342 0001295  94.3457 265.7683 15.08850707118165,6917.848,95.437,540.609,538.817,0.0
52090.0,STARLINK-3712,PAYLOAD,2024-04-30 12:21:19,15.08843796,0.0001398,53.2163,253.5649,88.0248,272.0904,0.00022737,3.333e-05,0.0,0 STARLINK-3712,1 52090U 22029C   24121.51480346  .00003333  00000-0  22737-3 0  9998,2 52090  53.2163 253.5649 0001398  88.0248 272.0904 15.08843796118277,6917.869,95.437,540.701,538.767,0.0
52090.0,STARLINK-3712,PAYLOAD,2024-04-30 13:56:42,15.08842196,0.000131,53.2174,253.2693,65.2205,294.8923,0.00024753,3.654e-05,0.0,0 STARLINK-3712,1 52090U 22029C   24121.58104503  .00003654  00000-0  24753-3 0  9999,2 52090  53.2174 253.2693 0001310  65.2205 294.8923 15.08842196118286,6917.874,95.437,540.645,538.832,0.0
52090.0,STARLINK-3712,PAYLOAD,2024-04-30 15:32:05,15.08849583,0.0001348,53.217,252.9712,92.1797,267.9349,0.00029818,4.462e-05,0.0,0 STARLINK-3712,1 52090U 22029C   24121.64728063  .00004462  00000-0  29818-3 0  9994,2 52090  53.2170 252.9712 0001348  92.1797 267.9349 15.08849583118297,6917.851,95.437,540.649,538.784,0.0
52090.0,STARLINK-3712,PAYLOAD,2024-05-01 09:01:19,15.08850851,0.0001393,53.216,249.7001,89.1421,270.9731,0.00010282,1.349e-05,0.0,0 STARLINK-3712,1 52090U 22029C   24122.37591646  .00001349  00000-0  10282-3 0  9996,2 52090  53.2160 249.7001 0001393  89.1421 270.9731 15.08850851118403,6917.847,95.437,540.676,538.749,0.0
52090.0,STARLINK-3712,PAYLOAD,2024-05-01 15:22:51,15.0885749,0.0001247,53.2154,248.51,90.0405,270.073,0.00026961,4.008e-05,0.0,0 STARLINK-3712,1 52090U 22029C   24122.64087209  .00004008  00000-0  26961-3 0  9997,2 52090  53.2154 248.5100 0001247  90.0405 270.0730 15.08857490118444,6917.827,95.436,540.555,538.829,0.0
52090.0,STARLINK-3712,PAYLOAD,2024-05-02 12:02:52,15.0883169,0.0001463,53.2166,244.6455,88.8579,271.2581,-0.00017798,-3.119e-05,0.0,0 STARLINK-3712,1 52090U 22029C   24123.50200201 -.00003119  00000-0 -17798-3 0  9994,2 52090  53.2166 244.6455 0001463  88.8579 271.2581 15.08831690118579,6917.906,95.438,540.783,538.759,0.0
52090.0,STARLINK-3712,PAYLOAD,2024-05-02 13:38:16,15.08833005,0.0001482,53.2168,244.3482,88.5003,271.6159,-0.00016285,-2.878e-05,0.0,0 STARLINK-3712,1 52090U 22029C   24123.56824164 -.00002878  00000-0 -16285-3 0  9991,2 52090  53.2168 244.3482 0001482  88.5003 271.6159 15.08833005118586,6917.902,95.438,540.792,538.742,0.0
52090.0,STARLINK-3712,PAYLOAD,2024-05-03 00:45:57,15.08836769,0.0001491,53.2163,242.2677,91.9313,268.1849,-2.0146e-05,-6.09e-06,0.0,0 STARLINK-3712,1 52090U 22029C   24124.03191991 -.00000609  00000-0 -20146-4 0  9991,2 52090  53.2163 242.2677 0001491  91.9313 268.1849 15.08836769118651,6917.89,95.438,540.787,538.724,0.0
52090.0,STARLINK-3712,PAYLOAD,2024-05-03 15:04:26,15.08850274,0.000144,53.2162,239.5914,88.3424,271.7733,0.00072752,0.00011313,0.0,0 STARLINK-3712,1 52090U 22029C   24124.62807872  .00011313  00000-0  72752-3 0  9999,2 52090  53.2162 239.5914 0001440  88.3424 271.7733 15.08850274118749,6917.849,95.437,540.71,538.718,0.0
52090.0,STARLINK-3712,PAYLOAD,2024-05-03 18:15:12,15.08860428,0.0001436,53.2157,238.9953,87.6036,272.512,0.00091189,0.00014263,0.0,0 STARLINK-3712,1 52090U 22029C   24124.76055585  .00014263  00000-0  91189-3 0  9992,2 52090  53.2157 238.9953 0001436  87.6036 272.5120 15.08860428118768,6917.818,95.436,540.676,538.69,0.0
52090.0,STARLINK-3712,PAYLOAD,2024-05-04 13:19:50,15.08834338,0.0001537,53.2144,235.4193,140.0077,220.1028,5.1164e-05,5.26e-06,0.0,0 STARLINK-3712,1 52090U 22029C   24125.55544128  .00000526  00000-0  51164-4 0  9993,2 52090  53.2144 235.4193 0001537 140.0077 220.1028 15.08834338118883,6917.898,95.438,540.826,538.699,0.0
52090.0,STARLINK-3712,PAYLOAD,2024-05-05 13:10:37,15.08867367,0.0001161,53.2157,230.9666,98.6383,261.4741,0.0015058,0.00023776,0.0,0 STARLINK-3712,1 52090U 22029C   24126.54904146  .00023776  00000-0  15058-2 0  9995,2 52090  53.2157 230.9666 0001161  98.6383 261.4741 15.08867367119039,6917.797,95.436,540.465,538.859,0.0
52090.0,STARLINK-3712,PAYLOAD,2024-05-05 14:46:00,15.08871789,0.0001239,53.2159,230.6697,95.8309,264.2824,0.0015976,0.00025251,0.0,0 STARLINK-3712,1 52090U 22029C   24126.61528028  .00025251  00000-0  15976-2 0  9993,2 52090  53.2159 230.6697 0001239  95.8309 264.2824 15.08871789119042,6917.783,95.436,540.505,538.791,0.0
52090.0,STARLINK-3712,PAYLOAD,2024-05-06 00:18:18,15.0886141,0.0001466,53.217,228.8839,81.9728,278.143,0.0010654,0.00016718,0.0,0 STARLINK-3712,1 52090U 22029C   24127.01271975  .00016718  00000-0  10654-2 0  9990,2 52090  53.2170 228.8839 0001466  81.9728 278.1430 15.08861410119109,6917.815,95.436,540.694,538.666,0.0
